$$SOE
2461281.500000000, A.D. 2026-Aug-29 00:00:00.0000, -4.684986510356397E+09, -3.963362660937743E+09, 1.004680133559052E+09,
2461288.500000000, A.D. 2026-Sep-05 00:00:00.0000, -4.683381007437040E+09, -3.965588499100450E+09, 1.005429440100438E+09,
2461295.500000000, A.D. 2026-Sep-12 00:00:00.0000, -4.681774529468466E+09, -3.967813585043656E+09, 1.006178543257018E+09,
2461302.500000000, A.D. 2026-Sep-19 00:00:00.0000, -4.680167078482615E+09, -3.970037919425748E+09, 1.006927443062371E+09,
2461309.500000000, A.D. 2026-Sep-26 00:00:00.0000, -4.678558656133053E+09, -3.972261503487588E+09, 1.007676139502083E+09,
2461316.500000000, A.D. 2026-Oct-03 00:00:00.0000, -4.676949263624725E+09, -3.974484338817147E+09, 1.008424632523420E+09,
2461323.500000000, A.D. 2026-Oct-10 00:00:00.0000, -4.675338901730295E+09, -3.976706427206830E+09, 1.009172922044452E+09,
2461330.500000000, A.D. 2026-Oct-17 00:00:00.0000, -4.673727570841436E+09, -3.978927770584344E+09, 1.009921007959514E+09,
2461337.500000000, A.D. 2026-Oct-24 00:00:00.0000, -4.672115271030669E+09, -3.981148371039651E+09, 1.010668890137007E+09,
2461344.500000000, A.D. 2026-Oct-31 00:00:00.0000, -4.670502002024994E+09, -3.983368231014646E+09, 1.011416568395175E+09,
2461351.500000000, A.D. 2026-Nov-07 00:00:00.0000, -4.668887762752241E+09, -3.985587353581471E+09, 1.012164042430964E+09,
2461358.500000000, A.D. 2026-Nov-14 00:00:00.0000, -4.667272550259269E+09, -3.987805741922042E+09, 1.012911311756256E+09,
2461365.500000000, A.D. 2026-Nov-21 00:00:00.0000, -4.665656359813762E+09, -3.990023397326910E+09, 1.013658375863625E+09,
2461372.500000000, A.D. 2026-Nov-28 00:00:00.0000, -4.664039187187716E+09, -3.992240318721519E+09, 1.014405234467574E+09,
2461379.500000000, A.D. 2026-Dec-05 00:00:00.0000, -4.662421029503081E+09, -3.994456504376194E+09, 1.015151887435932E+09,
2461386.500000000, A.D. 2026-Dec-12 00:00:00.0000, -4.660801884474627E+09, -3.996671952688878E+09, 1.015898334650810E+09,
2461393.500000000, A.D. 2026-Dec-19 00:00:00.0000, -4.659181749937308E+09, -3.998886662034181E+09, 1.016644575973003E+09,
2461400.500000000, A.D. 2026-Dec-26 00:00:00.0000, -4.657560623800556E+09, -4.001100630546829E+09, 1.017390611252174E+09,
2461407.500000000, A.D. 2027-Jan-02 00:00:00.0000, -4.655938504153905E+09, -4.003313856030540E+09, 1.018136440342090E+09,
2461414.500000000, A.D. 2027-Jan-09 00:00:00.0000, -4.654315389407646E+09, -4.005526335972332E+09, 1.018882063111961E+09,
2461421.500000000, A.D. 2027-Jan-16 00:00:00.0000, -4.652691278434207E+09, -4.007738067653663E+09, 1.019627479451442E+09,
2461428.500000000, A.D. 2027-Jan-23 00:00:00.0000, -4.651066170665673E+09, -4.009949048398234E+09, 1.020372689261844E+09,
2461435.500000000, A.D. 2027-Jan-30 00:00:00.0000, -4.649440065961341E+09, -4.012159276004428E+09, 1.021117692412418E+09,
2461442.500000000, A.D. 2027-Feb-06 00:00:00.0000, -4.647812963822195E+09, -4.014368749022509E+09, 1.021862488650441E+09,
2461449.500000000, A.D. 2027-Feb-13 00:00:00.0000, -4.646184862414195E+09, -4.016577465657034E+09, 1.022607077606873E+09,
2461456.500000000, A.D. 2027-Feb-20 00:00:00.0000, -4.644555759765563E+09, -4.018785422085580E+09, 1.023351459049574E+09,
2461463.500000000, A.D. 2027-Feb-27 00:00:00.0000, -4.642925655743113E+09, -4.020992613407483E+09, 1.024095632993213E+09,
2461470.500000000, A.D. 2027-Mar-06 00:00:00.0000, -4.641294551790100E+09, -4.023199035300064E+09, 1.024839599545989E+09,
2461477.500000000, A.D. 2027-Mar-13 00:00:00.0000, -4.639662450026177E+09, -4.025404684332863E+09, 1.025583358807209E+09,
2461484.500000000, A.D. 2027-Mar-20 00:00:00.0000, -4.638029352838962E+09, -4.027609557774536E+09, 1.026326910850947E+09,
2461491.500000000, A.D. 2027-Mar-27 00:00:00.0000, -4.636395262765305E+09, -4.029813653441333E+09, 1.027070255732210E+09,
2461498.500000000, A.D. 2027-Apr-03 00:00:00.0000, -4.634760182459331E+09, -4.032016969634946E+09, 1.027813393493041E+09,
2461505.500000000, A.D. 2027-Apr-10 00:00:00.0000, -4.633124114686008E+09, -4.034219505146603E+09, 1.028556324164725E+09,
2461512.500000000, A.D. 2027-Apr-17 00:00:00.0000, -4.631487062318198E+09, -4.036421259341751E+09, 1.029299047762849E+09,
2461519.500000000, A.D. 2027-Apr-24 00:00:00.0000, -4.629849028257930E+09, -4.038622232387510E+09, 1.030041564262881E+09,
2461526.500000000, A.D. 2027-May-01 00:00:00.0000, -4.628210014982320E+09, -4.040822425595023E+09, 1.030783873531007E+09,
2461533.500000000, A.D. 2027-May-08 00:00:00.0000, -4.626570023406683E+09, -4.043021841128369E+09, 1.031525975243247E+09,
2461540.500000000, A.D. 2027-May-15 00:00:00.0000, -4.624929052561761E+09, -4.045220480126596E+09, 1.032267869008056E+09,
2461547.500000000, A.D. 2027-May-22 00:00:00.0000, -4.623287101648896E+09, -4.047418341830424E+09, 1.033009554624071E+09,
2461554.500000000, A.D. 2027-May-29 00:00:00.0000, -4.621644171117236E+09, -4.049615425181952E+09, 1.033751032045313E+09,
2461561.500000000, A.D. 2027-Jun-05 00:00:00.0000, -4.620000261878135E+09, -4.051811729765556E+09, 1.034492301228685E+09,
2461568.500000000, A.D. 2027-Jun-12 00:00:00.0000, -4.618355374664270E+09, -4.054007255658222E+09, 1.035233362083322E+09,
2461575.500000000, A.D. 2027-Jun-19 00:00:00.0000, -4.616709509864500E+09, -4.056202003124302E+09, 1.035974214475859E+09,
2461582.500000000, A.D. 2027-Jun-26 00:00:00.0000, -4.615062667555053E+09, -4.058395972416021E+09, 1.036714858244829E+09,
2461589.500000000, A.D. 2027-Jul-03 00:00:00.0000, -4.613414847594903E+09, -4.060589163671435E+09, 1.037455293212960E+09,
2461596.500000000, A.D. 2027-Jul-10 00:00:00.0000, -4.611766049748507E+09, -4.062781576901107E+09, 1.038195519194941E+09,
2461603.500000000, A.D. 2027-Jul-17 00:00:00.0000, -4.610116273799547E+09, -4.064973212102378E+09, 1.038935535994406E+09,
2461610.500000000, A.D. 2027-Jul-24 00:00:00.0000, -4.608465519499242E+09, -4.067164069564028E+09, 1.039675343370892E+09,
2461617.500000000, A.D. 2027-Jul-31 00:00:00.0000, -4.606813785937818E+09, -4.069354150125810E+09, 1.040414940958515E+09,
2461624.500000000, A.D. 2027-Aug-07 00:00:00.0000, -4.605161070539851E+09, -4.071543454241138E+09, 1.041154328249085E+09,
2461631.500000000, A.D. 2027-Aug-14 00:00:00.0000, -4.603507369984590E+09, -4.073731980096239E+09, 1.041893504830099E+09,
2461638.500000000, A.D. 2027-Aug-21 00:00:00.0000, -4.601852682433052E+09, -4.075919724149944E+09, 1.042632470546043E+09,
2461645.500000000, A.D. 2027-Aug-28 00:00:00.0000, -4.600197007630841E+09, -4.078106682890904E+09, 1.043371225366593E+09,
2461652.500000000, A.D. 2027-Sep-04 00:00:00.0000, -4.598540346067803E+09, -4.080292853309936E+09, 1.044109769274438E+09,
2461659.500000000, A.D. 2027-Sep-11 00:00:00.0000, -4.596882698589863E+09, -4.082478232748778E+09, 1.044848102246450E+09,
2461666.500000000, A.D. 2027-Sep-18 00:00:00.0000, -4.595224066329850E+09, -4.084662818775354E+09, 1.045586224262603E+09,
2461673.500000000, A.D. 2027-Sep-25 00:00:00.0000, -4.593564450728436E+09, -4.086846609162924E+09, 1.046324135315042E+09,
2461680.500000000, A.D. 2027-Oct-02 00:00:00.0000, -4.591903853570144E+09, -4.089029601945244E+09, 1.047061835412418E+09,
2461687.500000000, A.D. 2027-Oct-09 00:00:00.0000, -4.590242277011893E+09, -4.091211795551824E+09, 1.047799324576784E+09,
2461694.500000000, A.D. 2027-Oct-16 00:00:00.0000, -4.588579723540817E+09, -4.093393189077753E+09, 1.048536602822579E+09,
2461701.500000000, A.D. 2027-Oct-23 00:00:00.0000, -4.586916195601355E+09, -4.095573782693384E+09, 1.049273670093173E+09,
2461708.500000000, A.D. 2027-Oct-30 00:00:00.0000, -4.585251694516756E+09, -4.097753577583207E+09, 1.050010526170380E+09,
2461715.500000000, A.D. 2027-Nov-06 00:00:00.0000, -4.583586219868335E+09, -4.099932574285471E+09, 1.050747170755711E+09,
2461722.500000000, A.D. 2027-Nov-13 00:00:00.0000, -4.581919771317815E+09, -4.102110771508564E+09, 1.051483603735731E+09,
2461729.500000000, A.D. 2027-Nov-20 00:00:00.0000, -4.580252349970868E+09, -4.104288167609827E+09, 1.052219825186726E+09,
2461736.500000000, A.D. 2027-Nov-27 00:00:00.0000, -4.578583957664228E+09, -4.106464761772237E+09, 1.052955835212603E+09,
2461743.500000000, A.D. 2027-Dec-04 00:00:00.0000, -4.576914596199939E+09, -4.108640553964954E+09, 1.053691633876351E+09,
2461750.500000000, A.D. 2027-Dec-11 00:00:00.0000, -4.575244267077275E+09, -4.110815544651603E+09, 1.054427221196821E+09,
2461757.500000000, A.D. 2027-Dec-18 00:00:00.0000, -4.573572971447402E+09, -4.112989734585303E+09, 1.055162597157980E+09,
2461764.500000000, A.D. 2027-Dec-25 00:00:00.0000, -4.571900710138729E+09, -4.115163124692517E+09, 1.055897761716606E+09,
2461771.500000000, A.D. 2028-Jan-01 00:00:00.0000, -4.570227483711587E+09, -4.117335716031002E+09, 1.056632714805926E+09,
$$EOE